<?xml version="1.0" encoding="UTF-8"?>
<kml xmlns="http://www.opengis.net/kml/2.2" xmlns:gx="http://www.google.com/kml/ext/2.2">
	<Document>
		<name>0/0/0.kml</name>
		<styleUrl>#hideChildrenStyle</styleUrl>
		<Style id="hideChildrenStyle">
			<ListStyle id="hideChildren">
				<listItemType>checkHideChildren</listItemType>
			</ListStyle>
		</Style>
		<Region>
			<LatLonAltBox>
				<north>-27.390124</north>
				<south>-27.401728</south>
				<east>-49.340949</east>
				<west>-49.351674</west>
			</LatLonAltBox>
			<Lod>
				<minLodPixels>1</minLodPixels>
				<maxLodPixels>2048</maxLodPixels>
			</Lod>
		</Region>
		<GroundOverlay>
			<drawOrder>0</drawOrder>
			<Icon>
				<href>0.png</href>
			</Icon>
			<gx:LatLonQuad>
				<coordinates>
					-49.351674,-27.401728,0
					-49.340778,-27.401598,0
					-49.340949,-27.390124,0
					-49.351845,-27.390253,0
				</coordinates>
			</gx:LatLonQuad>
		</GroundOverlay>
		<NetworkLink>
			<name>1/0/0.png</name>
			<Region>
				<Lod>
					<minLodPixels>128</minLodPixels>
					<maxLodPixels>-1</maxLodPixels>
				</Lod>
				<LatLonAltBox>
					<north>-27.395926</north>
					<south>-27.401728</south>
					<east>-49.346311</east>
					<west>-49.351674</west>
				</LatLonAltBox>
			</Region>
			<Link>
				<href>../../1/0/0.kml</href>
				<viewRefreshMode>onRegion</viewRefreshMode>
				<viewFormat/>
			</Link>
		</NetworkLink>
		<NetworkLink>
			<name>1/0/1.png</name>
			<Region>
				<Lod>
					<minLodPixels>128</minLodPixels>
					<maxLodPixels>-1</maxLodPixels>
				</Lod>
				<LatLonAltBox>
					<north>-27.390188</north>
					<south>-27.395990</south>
					<east>-49.346397</east>
					<west>-49.351760</west>
				</LatLonAltBox>
			</Region>
			<Link>
				<href>../../1/0/1.kml</href>
				<viewRefreshMode>onRegion</viewRefreshMode>
				<viewFormat/>
			</Link>
		</NetworkLink>
		<NetworkLink>
			<name>1/1/0.png</name>
			<Region>
				<Lod>
					<minLodPixels>128</minLodPixels>
					<maxLodPixels>-1</maxLodPixels>
				</Lod>
				<LatLonAltBox>
					<north>-27.395861</north>
					<south>-27.401663</south>
					<east>-49.340863</east>
					<west>-49.346226</west>
				</LatLonAltBox>
			</Region>
			<Link>
				<href>../../1/1/0.kml</href>
				<viewRefreshMode>onRegion</viewRefreshMode>
				<viewFormat/>
			</Link>
		</NetworkLink>
		<NetworkLink>
			<name>1/1/1.png</name>
			<Region>
				<Lod>
					<minLodPixels>128</minLodPixels>
					<maxLodPixels>-1</maxLodPixels>
				</Lod>
				<LatLonAltBox>
					<north>-27.390124</north>
					<south>-27.395926</south>
					<east>-49.340949</east>
					<west>-49.346311</west>
				</LatLonAltBox>
			</Region>
			<Link>
				<href>../../1/1/1.kml</href>
				<viewRefreshMode>onRegion</viewRefreshMode>
				<viewFormat/>
			</Link>
		</NetworkLink>
	</Document>
</kml>
